[
    {
      "CCSDS_CDM_VERS": "1.0",
      "CREATION_DATE": "2024-10-04T18:19:27.022",
      "ORIGINATOR": "CSpoc",
      "MESSAGE_ID": "2352_conj2_5250",
      "TCA": "2024-10-05T17:10:36.475",
      "MISS_DISTANCE": "14475",
      "SAT1_OBJECT": "OBJECT1",
      "SAT1_OBJECT_DESIGNATOR": "12345",
      "SAT1_CATALOG_NAME": "SATCAT",
      "SAT1_INTERNATIONAL_DESIGNATOR": "2019-030E",
      "SAT1_EPHEMERIS_NAME": "NONE",
      "SAT1_COVARIANCE_METHOD": "CALCULATED",
      "SAT1_MANEUVERABLE": "NO",
      "SAT1_REFERENCE_FRAME": "ITRF",
      "SAT1_X": "2569.097065",
      "SAT1_Y": "2245.654904",
      "SAT1_Z": "6281.497978",
      "SAT1_X_DOT": "4.418769571",
      "SAT1_Y_DOT": "4.833547743",
      "SAT1_Z_DOT": "-3.526774282",
      "SAT1_CR_R": "11.30329",
      "SAT1_CT_R": "-1736.0459177032214",
      "SAT1_CT_T": "1406.0959999999998",
      "SAT1_CN_R": "11.450941880675588",
      "SAT1_CN_T": "204.01998943137414",
      "SAT1_CN_N": "3.319463999999999",
      "SAT1_CRDOT_R": "0.0015412149999999955",
      "SAT1_CRDOT_T": "-2.1589377491633517",
      "SAT1_CRDOT_N": "-0.0001754131058154928",
      "SAT1_CRDOT_RDOT": "0.0015412149999999955",
      "SAT1_CTDOT_R": "-0.00014407361589835086",
      "SAT1_CTDOT_T": "0.0006101929798184829",
      "SAT1_CTDOT_N": "-1.3096352890776559e-05",
      "SAT1_CTDOT_RDOT": "-5.944793822298559e-10",
      "SAT1_CTDOT_TDOT": "1.2788699999999509e-05",
      "SAT1_CNDOT_R": "1.2313530455547843e-05",
      "SAT1_CNDOT_T": "0.00024296227126581737",
      "SAT1_CNDOT_N": "1.6925774251709703e-05",
      "SAT1_CNDOT_RDOT": "-3.218738348956514e-10",
      "SAT1_CNDOT_TDOT": "-1.4154215132856788e-11",
      "SAT1_CNDOT_NDOT": "8.802304999999936e-06",
      "SAT2_OBJECT": "OBJECT1",
      "SAT2_OBJECT_DESIGNATOR": "67891",
      "SAT2_CATALOG_NAME": "SATCAT",
      "SAT2_INTERNATIONAL_DESIGNATOR": "2021-030E",
      "SAT2_EPHEMERIS_NAME": "NONE",
      "SAT2_COVARIANCE_METHOD": "CALCULATED",
      "SAT2_MANEUVERABLE": "YES",
      "SAT2_REFERENCE_FRAME": "ITRF",
      "SAT2_X": "4663.5941299999995",
      "SAT2_Y": "-1304.8901919999998",
      "SAT2_Z": "25819.095956",
      "SAT2_X_DOT": "15.837539142",
      "SAT2_Y_DOT": "12646.667095485998",
      "SAT2_Z_DOT": "5518.846451436",
      "SAT2_CR_R": "68469.38",
      "SAT2_CT_R": "-163366625861765.34",
      "SAT2_CT_T": "2918959000.0000005",
      "SAT2_CN_R": "71915714.42231454",
      "SAT2_CN_T": "-23710013898.2132",
      "SAT2_CN_N": "2170.8850000000007",
      "SAT2_CRDOT_R": "3353.289999999999",
      "SAT2_CRDOT_T": "-9788098835180.406",
      "SAT2_CRDOT_N": "34493.37382121202",
      "SAT2_CRDOT_RDOT": "3353.289999999999",
      "SAT2_CTDOT_R": "-1348.4149760644132",
      "SAT2_CTDOT_T": "15903045.190279152",
      "SAT2_CTDOT_N": "-47.94694154153545",
      "SAT2_CTDOT_RDOT": "-18.32563855207348",
      "SAT2_CTDOT_TDOT": "0.027011589999999967",
      "SAT2_CNDOT_R": "2659.732660844721",
      "SAT2_CNDOT_T": "85254697.53509147",
      "SAT2_CNDOT_N": "234.04542544087747",
      "SAT2_CNDOT_RDOT": "-98.04438819670375",
      "SAT2_CNDOT_TDOT": "-0.0027233793844917732",
      "SAT2_CNDOT_NDOT": "0.1492901"
    }
]